LANDSAT 9               
1 49260U 21088A   23283.45888387  .00001008  00000+0  23376-3 0  9991
2 49260  98.2195 351.9118 0001177  85.9638 274.1695 14.57093092108182
